OBJECT_NAME,OBJECT_ID,EPOCH,MEAN_MOTION,ECCENTRICITY,INCLINATION,RA_OF_ASC_NODE,ARG_OF_PERICENTER,MEAN_ANOMALY,EPHEMERIS_TYPE,CLASSIFICATION_TYPE,NORAD_CAT_ID,ELEMENT_SET_NO,REV_AT_EPOCH,BSTAR,MEAN_MOTION_DOT,MEAN_MOTION_DDOT
STARLINK-37573,2026-126C,2026-06-20T08:28:34.358016,15.75239743,.0001589,97.2838,31.4771,85.6677,274.4769,0,U,69422,999,324,.1526E-2,.234337E-2,0
STARLINK-37820,2026-126D,2026-06-20T03:19:22.182816,15.79984571,.00018713,97.2825,31.3112,84.0499,276.0982,0,U,69423,999,321,.83789107E-3,.157227E-2,0
STARLINK-37822,2026-126E,2026-06-20T03:19:06.764736,15.79986977,.00021486,97.2822,31.3117,85.7226,274.4287,0,U,69424,999,321,.75325039E-3,.141086E-2,0
STARLINK-37836,2026-126F,2026-06-20T03:18:51.039936,15.79921613,.00018442,97.2823,31.3119,75.0543,285.0929,0,U,69425,999,321,.13516049E-2,.255895E-2,0
STARLINK-37850,2026-126G,2026-06-20T03:18:35.146656,15.79985280,.00015241,97.2822,31.3125,71.1777,288.9656,0,U,69426,999,326,.84224905E-3,.158062E-2,0
STARLINK-37823,2026-126H,2026-06-20T03:18:21.965472,15.79625093,.00011862,97.2824,31.3123,159.4149,200.7167,0,U,69427,999,321,-.26592116E-2,-.458108E-2,0
STARLINK-37834,2026-126J,2026-06-20T09:34:38.898048,15.75254348,.0002751,97.2837,31.5687,56.8303,303.3226,0,U,69428,999,325,.15534E-2,.23884E-2,0
STARLINK-37857,2026-126K,2026-06-20T03:17:49.013376,15.79981112,.00026296,97.2820,31.3130,58.5410,301.6115,0,U,69429,999,321,.8258936E-3,.15492E-2,0
STARLINK-37866,2026-126L,2026-06-20T03:17:32.781408,15.79984015,.00014061,97.2824,31.3131,95.2104,264.9324,0,U,69430,999,326,.52497681E-3,.97778E-3,0
STARLINK-37555,2026-126M,2026-06-20T03:17:17.326176,15.79977330,.00014817,97.2824,31.3137,89.3996,270.7442,0,U,69431,999,326,.67971887E-3,.127031E-2,0
STARLINK-37870,2026-126N,2026-06-20T03:17:01.845888,15.79925208,.00019215,97.2821,31.3139,103.0117,257.1365,0,U,69432,999,321,.13381985E-2,.253321E-2,0
STARLINK-37872,2026-126P,2026-06-19T21:11:56.979168,15.79999833,.00013275,97.2823,31.0463,98.1198,262.0221,0,U,69433,999,317,.13619339E-2,.258852E-2,0
STARLINK-37815,2026-126Q,2026-06-20T08:14:20.649984,15.75211342,.0001867,97.2840,31.4916,84.5858,275.5620,0,U,69434,999,324,.11389E-2,.1734E-2,0
STARLINK-37801,2026-126R,2026-06-19T13:36:30.422592,15.77587389,.00029731,97.2825,30.7119,185.9362,174.1870,0,U,69435,999,317,-.16229191E-3,-.26943E-3,0
STARLINK-37800,2026-126S,2026-06-20T07:57:03.908736,15.75220208,.0001442,97.2832,31.5077,85.6347,274.5083,0,U,69436,999,324,.82953E-3,.1256E-2,0
STARLINK-37792,2026-126T,2026-06-20T01:44:31.664544,15.79972601,.00019816,97.2823,31.2481,88.1916,271.9579,0,U,69437,999,325,.11409441E-2,.215477E-2,0
STARLINK-37783,2026-126U,2026-06-20T03:15:13.086432,15.79974485,.00022124,97.2822,31.3151,83.9637,276.1883,0,U,69438,999,326,.13343622E-2,.253157E-2,0
STARLINK-37771,2026-126V,2026-06-20T09:51:55.157184,15.75204238,.0001548,97.2839,31.5519,91.5250,268.6193,0,U,69439,999,325,.59565E-3,.8971E-3,0
STARLINK-37747,2026-126W,2026-06-20T03:15:28.024992,15.79950304,.00012805,97.2823,31.3151,107.2796,252.8612,0,U,69440,999,321,.89853157E-3,.168571E-2,0
STARLINK-37629,2026-127A,2026-06-20T10:00:01.998720,15.75212950,.0001701,53.1593,246.3644,46.7758,322.5423,0,U,69443,999,316,.1057E-3,.15574E-3,0
STARLINK-37509,2026-127B,2026-06-20T10:00:01.998720,15.76726261,.0001164,53.1594,246.3168,80.0964,312.1765,0,U,69444,999,316,-.12287E-1,-.1769508E-1,0
STARLINK-37641,2026-127C,2026-06-20T10:00:01.998720,15.80915253,.0001105,53.1585,246.2856,88.6779,319.0950,0,U,69445,999,316,-.49046E-3,-.96612E-3,0
STARLINK-37522,2026-127D,2026-06-20T10:00:01.998720,15.75306890,.000089,53.1595,246.3110,55.5242,339.5903,0,U,69446,999,316,-.10822E-2,-.16384E-2,0
STARLINK-37640,2026-127E,2026-06-20T10:00:01.998720,15.80891372,.0001358,53.1586,246.2530,81.0441,342.5325,0,U,69447,999,316,-.61836E-4,-.12896E-3,0
STARLINK-37572,2026-127F,2026-06-20T10:00:01.998720,15.79063778,.0001311,53.1591,246.2209,76.7289,1.9301,0,U,69448,999,316,-.12715E-1,-.1999108E-1,0
STARLINK-37643,2026-127G,2026-06-20T10:00:01.998720,15.75261691,.0001291,53.1656,246.2613,83.2989,335.7140,0,U,69449,999,316,-.42156E-3,-.64831E-3,0
STARLINK-37601,2026-127H,2026-06-20T10:00:01.998720,15.75288191,.0001585,53.1597,246.2569,92.7939,328.0762,0,U,69450,999,316,-.85802E-3,-.130444E-2,0
STARLINK-37578,2026-127J,2026-06-20T10:00:01.998720,15.80888643,.000119,53.1587,246.1752,89.5547,11.3285,0,U,69451,999,316,-.29069E-4,-.6436E-4,0
STARLINK-37577,2026-127K,2026-06-20T10:00:01.998720,15.80929222,.0001065,53.1587,246.1602,96.5112,11.6543,0,U,69452,999,316,-.57527E-3,-.113057E-2,0
STARLINK-37500,2026-127L,2026-06-20T10:00:01.998720,15.80891432,.0001209,53.1587,246.1271,73.4819,50.8363,0,U,69453,999,316,-.40239E-4,-.864E-4,0
