[
  {
    "name": "STARLINK-37573",
    "noradId": "69422",
    "line1": "1 69422U 26126C   26171.35317544  .00234337  00000+0  15260-2 0  9996",
    "line2": "2 69422  97.2838  31.4771 0001589  85.6677 274.4769 15.75239743  3241"
  },
  {
    "name": "STARLINK-37820",
    "noradId": "69423",
    "line1": "1 69423U 26126D   26171.13845119  .00157227  00000+0  83789-3 0  9991",
    "line2": "2 69423  97.2825  31.3112 0001871  84.0499 276.0982 15.79984571  3217"
  },
  {
    "name": "STARLINK-37822",
    "noradId": "69424",
    "line1": "1 69424U 26126E   26171.13827274  .00141086  00000+0  75325-3 0  9997",
    "line2": "2 69424  97.2822  31.3117 0002148  85.7226 274.4287 15.79986977  3216"
  },
  {
    "name": "STARLINK-37836",
    "noradId": "69425",
    "line1": "1 69425U 26126F   26171.13809074  .00255895  00000+0  13516-2 0  9993",
    "line2": "2 69425  97.2823  31.3119 0001844  75.0543 285.0929 15.79921613  3213"
  },
  {
    "name": "STARLINK-37850",
    "noradId": "69426",
    "line1": "1 69426U 26126G   26171.13790679  .00158062  00000+0  84225-3 0  9998",
    "line2": "2 69426  97.2822  31.3125 0001524  71.1777 288.9656 15.79985280  3265"
  },
  {
    "name": "STARLINK-37823",
    "noradId": "69427",
    "line1": "1 69427U 26126H   26171.13775423 -.00458108  00000+0 -26592-2 0  9997",
    "line2": "2 69427  97.2824  31.3123 0001186 159.4149 200.7167 15.79625093  3210"
  },
  {
    "name": "STARLINK-37834",
    "noradId": "69428",
    "line1": "1 69428U 26126J   26171.39906132  .00238840  00000+0  15534-2 0  9990",
    "line2": "2 69428  97.2837  31.5687 0002751  56.8303 303.3226 15.75254348  3250"
  },
  {
    "name": "STARLINK-37857",
    "noradId": "69429",
    "line1": "1 69429U 26126K   26171.13737284  .00154920  00000+0  82589-3 0  9994",
    "line2": "2 69429  97.2820  31.3130 0002629  58.5410 301.6115 15.79981112  3210"
  },
  {
    "name": "STARLINK-37866",
    "noradId": "69430",
    "line1": "1 69430U 26126L   26171.13718497  .00097778  00000+0  52498-3 0  9994",
    "line2": "2 69430  97.2824  31.3131 0001406  95.2104 264.9324 15.79984015  3260"
  },
  {
    "name": "STARLINK-37555",
    "noradId": "69431",
    "line1": "1 69431U 26126M   26171.13700609  .00127031  00000+0  67972-3 0  9990",
    "line2": "2 69431  97.2824  31.3137 0001481  89.3996 270.7442 15.79977330  3261"
  },
  {
    "name": "STARLINK-37870",
    "noradId": "69432",
    "line1": "1 69432U 26126N   26171.13682692  .00253321  00000+0  13382-2 0  9999",
    "line2": "2 69432  97.2821  31.3139 0001921 103.0117 257.1365 15.79925208  3214"
  },
  {
    "name": "STARLINK-37872",
    "noradId": "69433",
    "line1": "1 69433U 26126P   26170.88329837  .00258852  00000+0  13619-2 0  9997",
    "line2": "2 69433  97.2823  31.0463 0001327  98.1198 262.0221 15.79999833  3173"
  },
  {
    "name": "STARLINK-37815",
    "noradId": "69434",
    "line1": "1 69434U 26126Q   26171.34329456  .00173400  00000+0  11389-2 0  9994",
    "line2": "2 69434  97.2840  31.4916 0001867  84.5858 275.5620 15.75211342  3249"
  },
  {
    "name": "STARLINK-37801",
    "noradId": "69435",
    "line1": "1 69435U 26126R   26170.56701878 -.00026943  00000+0 -16229-3 0  9990",
    "line2": "2 69435  97.2825  30.7119 0002973 185.9362 174.1870 15.77587389  3177"
  },
  {
    "name": "STARLINK-37800",
    "noradId": "69436",
    "line1": "1 69436U 26126S   26171.33129524  .00125600  00000+0  82953-3 0  9994",
    "line2": "2 69436  97.2832  31.5077 0001442  85.6347 274.5083 15.75220208  3248"
  },
  {
    "name": "STARLINK-37792",
    "noradId": "69437",
    "line1": "1 69437U 26126T   26171.07258871  .00215477  00000+0  11409-2 0  9993",
    "line2": "2 69437  97.2823  31.2481 0001981  88.1916 271.9579 15.79972601  3250"
  },
  {
    "name": "STARLINK-37783",
    "noradId": "69438",
    "line1": "1 69438U 26126U   26171.13556813  .00253157  00000+0  13344-2 0  9995",
    "line2": "2 69438  97.2822  31.3151 0002212  83.9637 276.1883 15.79974485  3264"
  },
  {
    "name": "STARLINK-37771",
    "noradId": "69439",
    "line1": "1 69439U 26126V   26171.41105506  .00089710  00000+0  59565-3 0  9994",
    "line2": "2 69439  97.2839  31.5519 0001548  91.5250 268.6193 15.75204238  3257"
  },
  {
    "name": "STARLINK-37747",
    "noradId": "69440",
    "line1": "1 69440U 26126W   26171.13574103  .00168571  00000+0  89853-3 0  9994",
    "line2": "2 69440  97.2823  31.3151 0001280 107.2796 252.8612 15.79950304  3218"
  },
  {
    "name": "STARLINK-37629",
    "noradId": "69443",
    "line1": "1 69443U 26127A   26171.41668980  .00015574  00000+0  10570-3 0  9990",
    "line2": "2 69443  53.1593 246.3644 0001701  46.7758 322.5423 15.75212950  3167"
  },
  {
    "name": "STARLINK-37509",
    "noradId": "69444",
    "line1": "1 69444U 26127B   26171.41668980 -.01769508  00000+0 -12287-1 0  9992",
    "line2": "2 69444  53.1594 246.3168 0001164  80.0964 312.1765 15.76726261  3163"
  },
  {
    "name": "STARLINK-37641",
    "noradId": "69445",
    "line1": "1 69445U 26127C   26171.41668980 -.00096612  00000+0 -49046-3 0  9996",
    "line2": "2 69445  53.1585 246.2856 0001105  88.6779 319.0950 15.80915253  3168"
  },
  {
    "name": "STARLINK-37522",
    "noradId": "69446",
    "line1": "1 69446U 26127D   26171.41668980 -.00163840  00000+0 -10822-2 0  9994",
    "line2": "2 69446  53.1595 246.3110 0000890  55.5242 339.5903 15.75306890  3162"
  },
  {
    "name": "STARLINK-37640",
    "noradId": "69447",
    "line1": "1 69447U 26127E   26171.41668980 -.00012896  00000+0 -61836-4 0  9992",
    "line2": "2 69447  53.1586 246.2530 0001358  81.0441 342.5325 15.80891372  3165"
  },
  {
    "name": "STARLINK-37572",
    "noradId": "69448",
    "line1": "1 69448U 26127F   26171.41668980 -.01999108  00000+0 -12715-1 0  9993",
    "line2": "2 69448  53.1591 246.2209 0001311  76.7289   1.9301 15.79063778  3164"
  },
  {
    "name": "STARLINK-37643",
    "noradId": "69449",
    "line1": "1 69449U 26127G   26171.41668980 -.00064831  00000+0 -42156-3 0  9993",
    "line2": "2 69449  53.1656 246.2613 0001291  83.2989 335.7140 15.75261691  3162"
  },
  {
    "name": "STARLINK-37601",
    "noradId": "69450",
    "line1": "1 69450U 26127H   26171.41668980 -.00130444  00000+0 -85802-3 0  9994",
    "line2": "2 69450  53.1597 246.2569 0001585  92.7939 328.0762 15.75288191  3163"
  },
  {
    "name": "STARLINK-37578",
    "noradId": "69451",
    "line1": "1 69451U 26127J   26171.41668980 -.00006436  00000+0 -29069-4 0  9992",
    "line2": "2 69451  53.1587 246.1752 0001190  89.5547  11.3285 15.80888643  3163"
  },
  {
    "name": "STARLINK-37577",
    "noradId": "69452",
    "line1": "1 69452U 26127K   26171.41668980 -.00113057  00000+0 -57527-3 0  9990",
    "line2": "2 69452  53.1587 246.1602 0001065  96.5112  11.6543 15.80929222  3164"
  },
  {
    "name": "STARLINK-37500",
    "noradId": "69453",
    "line1": "1 69453U 26127L   26171.41668980 -.00008640  00000+0 -40239-4 0  9995",
    "line2": "2 69453  53.1587 246.1271 0001209  73.4819  50.8363 15.80891432  3161"
  }
]